{
    "links": {
        "self": "http://www.neowsapp.com/rest/v1/neo/3653252?api_key=iIulBulltgU6a56xZRHN4H3l9WmuAYTsLGpBGhQ2"
    },
    "id": "3653252",
    "neo_reference_id": "3653252",
    "name": "(2013 UK5)",
    "designation": "2013 UK5",
    "nasa_jpl_url": "http://ssd.jpl.nasa.gov/sbdb.cgi?sstr=3653252",
    "absolute_magnitude_h": 24.3,
    "estimated_diameter": {
        "kilometers": {
            "estimated_diameter_min": 0.0366906138,
            "estimated_diameter_max": 0.0820427065
        },
        "meters": {
            "estimated_diameter_min": 36.6906137531,
            "estimated_diameter_max": 82.0427064882
        },
        "miles": {
            "estimated_diameter_min": 0.0227984834,
            "estimated_diameter_max": 0.0509789586
        },
        "feet": {
            "estimated_diameter_min": 120.3760332259,
            "estimated_diameter_max": 269.1689931548
        }
    },
    "is_potentially_hazardous_asteroid": false,
    "close_approach_data": [
        {
            "close_approach_date": "2013-09-24",
            "close_approach_date_full": "2013-Sep-24 08:11",
            "epoch_date_close_approach": 1380010260000,
            "relative_velocity": {
                "kilometers_per_second": "6.1106783012",
                "kilometers_per_hour": "21998.4418843288",
                "miles_per_hour": "13668.9762919597"
            },
            "miss_distance": {
                "astronomical": "0.0656553147",
                "lunar": "25.5399174183",
                "kilometers": "9821895.233299689",
                "miles": "6103042.6961221482"
            },
            "orbiting_body": "Earth"
        }
    ],
    "orbital_data": {
        "orbit_id": "6",
        "orbit_determination_date": "2017-04-06 08:43:58",
        "first_observation_date": "2013-10-25",
        "last_observation_date": "2013-11-03",
        "data_arc_in_days": 9,
        "observations_used": 18,
        "orbit_uncertainty": "8",
        "minimum_orbit_intersection": ".0433993",
        "jupiter_tisserand_invariant": "4.042",
        "epoch_osculation": "2456591.5",
        "eccentricity": ".3987685183681569",
        "semi_major_axis": "1.744604343326338",
        "inclination": "3.795755871031341",
        "ascending_node_longitude": "175.7875082647066",
        "orbital_period": "841.6738822170986",
        "perihelion_distance": "1.048911054199443",
        "perihelion_argument": "172.9276365881953",
        "aphelion_distance": "2.440297632453234",
        "perihelion_time": "2456550.393298256139",
        "mean_anomaly": "17.5821216987376",
        "mean_motion": ".4277191054707609",
        "equinox": "J2000",
        "orbit_class": {
            "orbit_class_type": "AMO",
            "orbit_class_description": "Near-Earth asteroid orbits similar to that of 1221 Amor",
            "orbit_class_range": "1.017 AU < q (perihelion) < 1.3 AU"
        }
    },
    "is_sentry_object": false
}